CYGNUS NG-24            
1 68689U 26079A   26123.81265451  .00005869  00000+0  11427-3 0  9992
2 68689  51.6305 159.7493 0007296  20.0235 340.1038 15.49081120  3578
PROGRESS-MS 34          
1 68837U 26093A   26123.81265451  .00005869  00000+0  11427-3 0  9993
2 68837  51.6305 159.7493 0007296  20.0235 340.1038 15.49081120  1076
